ONEWEB-0534             
1 55797U 23029B   24095.44980463  .00000132  00000+0  29148-3 0  9999
2 55797  87.9154  74.4143 0001850  79.9136 280.2206 13.20772172 55744
ONEWEB-0556             
1 55798U 23029C   24094.92582134 -.00000028  00000+0 -10146-3 0  9999
2 55798  87.9151  74.5126 0002349  62.1777 297.9594 13.20770776 54981
ONEWEB-0562             
1 55799U 23029D   24095.44350296  .00000145  00000+0  32378-3 0  9999
2 55799  87.9155  74.3994 0002935  71.5409 288.6043 13.20771194 55739
ONEWEB-0563             
1 55800U 23029E   24095.43716663  .00000153  00000+0  34318-3 0  9990
2 55800  87.9154  74.4157 0002006  74.8235 285.3120 13.20769644 55721
ONEWEB-0564             
1 55801U 23029F   24095.43087334 -.00000925  00000+0 -23070-2 0  9998
2 55801  87.9157  74.4015 0002331  85.8114 274.3286 13.20762035 55769
ONEWEB-0638             
1 55802U 23029G   24095.51315530  .00000274  00000+0  70587-3 0  9991
2 55802  87.8900  89.6855 0001814  65.4435 294.6883 13.14503819 54527
ONEWEB-0639             
1 55803U 23029H   24095.52554712  .00000098  00000+0  21257-3 0  9994
2 55803  87.9101 104.9369 0000498 108.3691 251.7496 13.19723631 53592
ONEWEB-0640             
1 55804U 23029J   24095.52267733  .00000167  00000+0  41664-3 0  9990
2 55804  87.8898  89.6813 0001638  58.8912 301.2379 13.14503224 54513
